<osm version="0.6" generator="OSMnx"><node id="30888195" timestamp="2017-01-01T00:00:00Z" uid="1" user="osmnx" version="1" changeset="1" lat="47.589669" lon="-122.3067888"><tag k="highway" v="nan" /></node><node id="53134853" timestamp="2017-01-01T00:00:00Z" uid="1" user="osmnx" version="1" changeset="1" lat="47.5836744" lon="-122.3068678"><tag k="highway" v="nan" /></node><node id="53130376" timestamp="2017-01-01T00:00:00Z" uid="1" user="osmnx" version="1" changeset="1" lat="47.5863252" lon="-122.3042504"><tag k="highway" v="nan" /></node><node id="53130377" timestamp="2017-01-01T00:00:00Z" uid="1" user="osmnx" version="1" changeset="1" lat="47.5854998" lon="-122.3042431"><tag k="highway" v="nan" /></node><node id="53130378" timestamp="2017-01-01T00:00:00Z" uid="1" user="osmnx" version="1" changeset="1" lat="47.5845024" lon="-122.3042575"><tag k="highway" v="nan" /></node><node id="53029515" timestamp="2017-01-01T00:00:00Z" uid="1" user="osmnx" version="1" changeset="1" lat="47.59232" lon="-122.308836"><tag k="highway" v="nan" /></node><node id="30888075" timestamp="2017-01-01T00:00:00Z" uid="1" user="osmnx" version="1" changeset="1" lat="47.5928512" lon="-122.3092473"><tag k="highway" v="motorway_junction" /></node><node id="53215758" timestamp="2017-01-01T00:00:00Z" uid="1" user="osmnx" version="1" changeset="1" lat="47.5845355" lon="-122.31076"><tag k="highway" v="nan" /></node><node id="53130383" timestamp="2017-01-01T00:00:00Z" uid="1" user="osmnx" version="1" changeset="1" lat="47.582953" lon="-122.3042742"><tag k="highway" v="nan" /></node><node id="53130385" timestamp="2017-01-01T00:00:00Z" uid="1" user="osmnx" version="1" changeset="1" lat="47.5810165" lon="-122.3043096"><tag k="highway" v="nan" /></node><node id="151942802" timestamp="2017-01-01T00:00:00Z" uid="1" user="osmnx" version="1" changeset="1" lat="47.5873575" lon="-122.3050688"><tag k="highway" v="nan" /></node><node id="53244433" timestamp="2017-01-01T00:00:00Z" uid="1" user="osmnx" version="1" changeset="1" lat="47.584531" lon="-122.3094617"><tag k="highway" v="nan" /></node><node id="9188430100" timestamp="2017-01-01T00:00:00Z" uid="1" user="osmnx" version="1" changeset="1" lat="47.596697" lon="-122.3089743"><tag k="highway" v="nan" /></node><node id="9188430102" timestamp="2017-01-01T00:00:00Z" uid="1" user="osmnx" version="1" changeset="1" lat="47.5966037" lon="-122.3089763"><tag k="highway" v="nan" /></node><node id="53136409" timestamp="2017-01-01T00:00:00Z" uid="1" user="osmnx" version="1" changeset="1" lat="47.5869318" lon="-122.3047088"><tag k="highway" v="nan" /></node><node id="53086619" timestamp="2017-01-01T00:00:00Z" uid="1" user="osmnx" version="1" changeset="1" lat="47.5884111" lon="-122.306238"><tag k="highway" v="nan" /></node><node id="53086620" timestamp="2017-01-01T00:00:00Z" uid="1" user="osmnx" version="1" changeset="1" lat="47.5884088" lon="-122.3058146"><tag k="highway" v="traffic_signals" /></node><node id="9190642591" timestamp="2017-01-01T00:00:00Z" uid="1" user="osmnx" version="1" changeset="1" lat="47.5836228" lon="-122.3042743"><tag k="highway" v="nan" /></node><node id="9190642592" timestamp="2017-01-01T00:00:00Z" uid="1" user="osmnx" version="1" changeset="1" lat="47.5836687" lon="-122.3042054"><tag k="highway" v="nan" /></node><node id="9190642593" timestamp="2017-01-01T00:00:00Z" uid="1" user="osmnx" version="1" changeset="1" lat="47.5837178" lon="-122.304273"><tag k="highway" v="nan" /></node><node id="53128225" timestamp="2017-01-01T00:00:00Z" uid="1" user="osmnx" version="1" changeset="1" lat="47.5845255" lon="-122.308161"><tag k="highway" v="nan" /></node><node id="53138081" timestamp="2017-01-01T00:00:00Z" uid="1" user="osmnx" version="1" changeset="1" lat="47.5863476" lon="-122.3107877"><tag k="highway" v="nan" /></node><node id="53155366" timestamp="2017-01-01T00:00:00Z" uid="1" user="osmnx" version="1" changeset="1" lat="47.5958756" lon="-122.3101994"><tag k="highway" v="nan" /></node><node id="30888236" timestamp="2017-01-01T00:00:00Z" uid="1" user="osmnx" version="1" changeset="1" lat="47.588734" lon="-122.3060653"><tag k="highway" v="nan" /></node><node id="246768814" timestamp="2017-01-01T00:00:00Z" uid="1" user="osmnx" version="1" changeset="1" lat="47.5940702" lon="-122.3101472"><tag k="highway" v="traffic_signals" /></node><node id="9190642612" timestamp="2017-01-01T00:00:00Z" uid="1" user="osmnx" version="1" changeset="1" lat="47.5836252" lon="-122.3055715"><tag k="highway" v="nan" /></node><node id="9190642613" timestamp="2017-01-01T00:00:00Z" uid="1" user="osmnx" version="1" changeset="1" lat="47.5836722" lon="-122.3056407"><tag k="highway" v="nan" /></node><node id="9188434745" timestamp="2017-01-01T00:00:00Z" uid="1" user="osmnx" version="1" changeset="1" lat="47.5975326" lon="-122.3089722"><tag k="highway" v="nan" /></node><node id="9188434746" timestamp="2017-01-01T00:00:00Z" uid="1" user="osmnx" version="1" changeset="1" lat="47.5974956" lon="-122.3089109"><tag k="highway" v="nan" /></node><node id="9188434747" timestamp="2017-01-01T00:00:00Z" uid="1" user="osmnx" version="1" changeset="1" lat="47.5974415" lon="-122.3089721"><tag k="highway" v="nan" /></node><node id="53090748" timestamp="2017-01-01T00:00:00Z" uid="1" user="osmnx" version="1" changeset="1" lat="47.5877643" lon="-122.3105482"><tag k="highway" v="nan" /></node><node id="9188436157" timestamp="2017-01-01T00:00:00Z" uid="1" user="osmnx" version="1" changeset="1" lat="47.5983254" lon="-122.3089024"><tag k="highway" v="nan" /></node><node id="9188413630" timestamp="2017-01-01T00:00:00Z" uid="1" user="osmnx" version="1" changeset="1" lat="47.5958734" lon="-122.3090387"><tag k="highway" v="nan" /></node><node id="9188436158" timestamp="2017-01-01T00:00:00Z" uid="1" user="osmnx" version="1" changeset="1" lat="47.5983732" lon="-122.3089724"><tag k="highway" v="nan" /></node><node id="9188413632" timestamp="2017-01-01T00:00:00Z" uid="1" user="osmnx" version="1" changeset="1" lat="47.5959101" lon="-122.3089797"><tag k="highway" v="nan" /></node><node id="53090753" timestamp="2017-01-01T00:00:00Z" uid="1" user="osmnx" version="1" changeset="1" lat="47.5877375" lon="-122.307325"><tag k="highway" v="nan" /></node><node id="53090750" timestamp="2017-01-01T00:00:00Z" uid="1" user="osmnx" version="1" changeset="1" lat="47.5877473" lon="-122.3084134"><tag k="highway" v="nan" /></node><node id="53090749" timestamp="2017-01-01T00:00:00Z" uid="1" user="osmnx" version="1" changeset="1" lat="47.5877511" lon="-122.3094812"><tag k="highway" v="nan" /></node><node id="53090756" timestamp="2017-01-01T00:00:00Z" uid="1" user="osmnx" version="1" changeset="1" lat="47.587739" lon="-122.3053388"><tag k="highway" v="nan" /></node><node id="9190634821" timestamp="2017-01-01T00:00:00Z" uid="1" user="osmnx" version="1" changeset="1" lat="47.5845271" lon="-122.3069356"><tag k="highway" v="nan" /></node><node id="9190634822" timestamp="2017-01-01T00:00:00Z" uid="1" user="osmnx" version="1" changeset="1" lat="47.5844815" lon="-122.3068651"><tag k="highway" v="nan" /></node><node id="9188436169" timestamp="2017-01-01T00:00:00Z" uid="1" user="osmnx" version="1" changeset="1" lat="47.598275" lon="-122.3089684"><tag k="highway" v="nan" /></node><node id="1851247309" timestamp="2017-01-01T00:00:00Z" uid="1" user="osmnx" version="1" changeset="1" lat="47.5908244" lon="-122.3077104"><tag k="highway" v="nan" /></node><node id="53148751" timestamp="2017-01-01T00:00:00Z" uid="1" user="osmnx" version="1" changeset="1" lat="47.585528" lon="-122.3107861"><tag k="highway" v="nan" /></node><node id="1807547986" timestamp="2017-01-01T00:00:00Z" uid="1" user="osmnx" version="1" changeset="1" lat="47.5866045" lon="-122.30447"><tag k="highway" v="nan" /></node><node id="53114066" timestamp="2017-01-01T00:00:00Z" uid="1" user="osmnx" version="1" changeset="1" lat="47.596651" lon="-122.3089063"><tag k="highway" v="nan" /></node><node id="53168084" timestamp="2017-01-01T00:00:00Z" uid="1" user="osmnx" version="1" changeset="1" lat="47.6008445" lon="-122.3089592"><tag k="highway" v="nan" /></node><node id="1807547989" timestamp="2017-01-01T00:00:00Z" uid="1" user="osmnx" version="1" changeset="1" lat="47.5861721" lon="-122.3041189"><tag k="highway" v="nan" /></node><node id="53199573" timestamp="2017-01-01T00:00:00Z" uid="1" user="osmnx" version="1" changeset="1" lat="47.5829559" lon="-122.3055553"><tag k="highway" v="nan" /></node><node id="9190705893" timestamp="2017-01-01T00:00:00Z" uid="1" user="osmnx" version="1" changeset="1" lat="47.581058" lon="-122.3055784"><tag k="highway" v="nan" /></node><node id="9190705894" timestamp="2017-01-01T00:00:00Z" uid="1" user="osmnx" version="1" changeset="1" lat="47.5810222" lon="-122.3055017"><tag k="highway" v="nan" /></node><node id="53129320" timestamp="2017-01-01T00:00:00Z" uid="1" user="osmnx" version="1" changeset="1" lat="47.6000089" lon="-122.3089655"><tag k="highway" v="nan" /></node><node id="53239403" timestamp="2017-01-01T00:00:00Z" uid="1" user="osmnx" version="1" changeset="1" lat="47.5934933" lon="-122.3097301"><tag k="highway" v="nan" /></node><node id="9190593391" timestamp="2017-01-01T00:00:00Z" uid="1" user="osmnx" version="1" changeset="1" lat="47.5877359" lon="-122.3063318"><tag k="highway" v="nan" /></node><node id="9190593392" timestamp="2017-01-01T00:00:00Z" uid="1" user="osmnx" version="1" changeset="1" lat="47.5877786" lon="-122.3062659"><tag k="highway" v="nan" /></node><node id="9188385523" timestamp="2017-01-01T00:00:00Z" uid="1" user="osmnx" version="1" changeset="1" lat="47.594485" lon="-122.3091833"><tag k="highway" v="nan" /></node><node id="9188385524" timestamp="2017-01-01T00:00:00Z" uid="1" user="osmnx" version="1" changeset="1" lat="47.594406" lon="-122.309215"><tag k="highway" v="nan" /></node><node id="281497076" timestamp="2017-01-01T00:00:00Z" uid="1" user="osmnx" version="1" changeset="1" lat="47.5988003" lon="-122.3089659"><tag k="highway" v="nan" /></node><node id="53089016" timestamp="2017-01-01T00:00:00Z" uid="1" user="osmnx" version="1" changeset="1" lat="47.5992434" lon="-122.3089645"><tag k="highway" v="nan" /></node><way id="0" timestamp="2017-01-01T00:00:00Z" uid="1" user="osmnx" version="1" changeset="1"><nd ref="30888195" /><nd ref="30888236" /><tag k="highway" v="primary" /><tag k="lanes" v="4" /><tag k="maxspeed" v="25 mph" /><tag k="name" v="Rainier Avenue South" /><tag k="oneway" v="no" /></way><way id="1" timestamp="2017-01-01T00:00:00Z" uid="1" user="osmnx" version="1" changeset="1"><nd ref="30888195" /><nd ref="1851247309" /><tag k="highway" v="primary" /><tag k="lanes" v="4" /><tag k="maxspeed" v="25 mph" /><tag k="name" v="Rainier Avenue South" /><tag k="oneway" v="no" /></way><way id="10" timestamp="2017-01-01T00:00:00Z" uid="1" user="osmnx" version="1" changeset="1"><nd ref="53029515" /><nd ref="1851247309" /><tag k="highway" v="primary" /><tag k="lanes" v="4" /><tag k="maxspeed" v="25 mph" /><tag k="name" v="Rainier Avenue South" /><tag k="oneway" v="no" /></way><way id="11" timestamp="2017-01-01T00:00:00Z" uid="1" user="osmnx" version="1" changeset="1"><nd ref="30888075" /><nd ref="53239403" /><tag k="highway" v="primary" /><tag k="lanes" v="6" /><tag k="maxspeed" v="25 mph" /><tag k="name" v="Rainier Avenue South" /><tag k="oneway" v="no" /></way><way id="12" timestamp="2017-01-01T00:00:00Z" uid="1" user="osmnx" version="1" changeset="1"><nd ref="53215758" /><nd ref="53148751" /><tag k="highway" v="tertiary" /><tag k="lanes" v="nan" /><tag k="maxspeed" v="25 mph" /><tag k="name" v="17th Avenue South" /><tag k="oneway" v="no" /></way><way id="13" timestamp="2017-01-01T00:00:00Z" uid="1" user="osmnx" version="1" changeset="1"><nd ref="53215758" /><nd ref="53244433" /><tag k="highway" v="residential" /><tag k="lanes" v="nan" /><tag k="maxspeed" v="nan" /><tag k="name" v="South Hill Street" /><tag k="oneway" v="no" /></way><way id="14" timestamp="2017-01-01T00:00:00Z" uid="1" user="osmnx" version="1" changeset="1"><nd ref="53130383" /><nd ref="53199573" /><tag k="highway" v="tertiary" /><tag k="lanes" v="nan" /><tag k="maxspeed" v="25 mph" /><tag k="name" v="South College Street" /><tag k="oneway" v="no" /></way><way id="15" timestamp="2017-01-01T00:00:00Z" uid="1" user="osmnx" version="1" changeset="1"><nd ref="53130383" /><nd ref="9190642591" /><tag k="highway" v="residential" /><tag k="lanes" v="nan" /><tag k="maxspeed" v="nan" /><tag k="name" v="22nd Avenue South" /><tag k="oneway" v="no" /></way><way id="16" timestamp="2017-01-01T00:00:00Z" uid="1" user="osmnx" version="1" changeset="1"><nd ref="53130383" /><nd ref="53130385" /><tag k="highway" v="residential" /><tag k="lanes" v="nan" /><tag k="maxspeed" v="nan" /><tag k="name" v="22nd Avenue South" /><tag k="oneway" v="no" /></way><way id="17" timestamp="2017-01-01T00:00:00Z" uid="1" user="osmnx" version="1" changeset="1"><nd ref="53130385" /><nd ref="9190705894" /><tag k="highway" v="residential" /><tag k="lanes" v="nan" /><tag k="maxspeed" v="nan" /><tag k="name" v="South Bayview Street" /><tag k="oneway" v="no" /></way><way id="18" timestamp="2017-01-01T00:00:00Z" uid="1" user="osmnx" version="1" changeset="1"><nd ref="151942802" /><nd ref="53090756" /><tag k="highway" v="primary" /><tag k="lanes" v="5" /><tag k="maxspeed" v="25 mph" /><tag k="name" v="Rainier Avenue South" /><tag k="oneway" v="no" /></way><way id="19" timestamp="2017-01-01T00:00:00Z" uid="1" user="osmnx" version="1" changeset="1"><nd ref="151942802" /><nd ref="53136409" /><tag k="highway" v="primary" /><tag k="lanes" v="5" /><tag k="maxspeed" v="25 mph" /><tag k="name" v="Rainier Avenue South" /><tag k="oneway" v="no" /></way><way id="2" timestamp="2017-01-01T00:00:00Z" uid="1" user="osmnx" version="1" changeset="1"><nd ref="53134853" /><nd ref="9190634822" /><tag k="highway" v="residential" /><tag k="lanes" v="nan" /><tag k="maxspeed" v="nan" /><tag k="name" v="20th Avenue South" /><tag k="oneway" v="no" /></way><way id="20" timestamp="2017-01-01T00:00:00Z" uid="1" user="osmnx" version="1" changeset="1"><nd ref="53244433" /><nd ref="53128225" /><tag k="highway" v="residential" /><tag k="lanes" v="nan" /><tag k="maxspeed" v="nan" /><tag k="name" v="South Hill Street" /><tag k="oneway" v="no" /></way><way id="21" timestamp="2017-01-01T00:00:00Z" uid="1" user="osmnx" version="1" changeset="1"><nd ref="9188430100" /><nd ref="53114066" /><tag k="highway" v="residential" /><tag k="lanes" v="1" /><tag k="maxspeed" v="20 mph" /><tag k="name" v="nan" /><tag k="oneway" v="yes" /></way><way id="22" timestamp="2017-01-01T00:00:00Z" uid="1" user="osmnx" version="1" changeset="1"><nd ref="9188430100" /><nd ref="9188434747" /><tag k="highway" v="residential" /><tag k="lanes" v="2" /><tag k="maxspeed" v="20 mph" /><tag k="name" v="18th Avenue South" /><tag k="oneway" v="no" /></way><way id="23" timestamp="2017-01-01T00:00:00Z" uid="1" user="osmnx" version="1" changeset="1"><nd ref="9188430102" /><nd ref="9188413632" /><tag k="highway" v="residential" /><tag k="lanes" v="2" /><tag k="maxspeed" v="25 mph" /><tag k="name" v="18th Avenue South" /><tag k="oneway" v="no" /></way><way id="24" timestamp="2017-01-01T00:00:00Z" uid="1" user="osmnx" version="1" changeset="1"><nd ref="9188430102" /><nd ref="53114066" /><tag k="highway" v="residential" /><tag k="lanes" v="1" /><tag k="maxspeed" v="20 mph" /><tag k="name" v="nan" /><tag k="oneway" v="yes" /></way><way id="25" timestamp="2017-01-01T00:00:00Z" uid="1" user="osmnx" version="1" changeset="1"><nd ref="53136409" /><nd ref="1807547986" /><tag k="highway" v="primary" /><tag k="lanes" v="5" /><tag k="maxspeed" v="25 mph" /><tag k="name" v="Rainier Avenue South" /><tag k="oneway" v="no" /></way><way id="26" timestamp="2017-01-01T00:00:00Z" uid="1" user="osmnx" version="1" changeset="1"><nd ref="53086619" /><nd ref="9190593392" /><tag k="highway" v="residential" /><tag k="lanes" v="nan" /><tag k="maxspeed" v="nan" /><tag k="name" v="20th Avenue South" /><tag k="oneway" v="no" /></way><way id="27" timestamp="2017-01-01T00:00:00Z" uid="1" user="osmnx" version="1" changeset="1"><nd ref="53086619" /><nd ref="53086620" /><tag k="highway" v="tertiary" /><tag k="lanes" v="nan" /><tag k="maxspeed" v="25 mph" /><tag k="name" v="South Massachusetts Street" /><tag k="oneway" v="no" /></way><way id="28" timestamp="2017-01-01T00:00:00Z" uid="1" user="osmnx" version="1" changeset="1"><nd ref="53086620" /><nd ref="30888236" /><tag k="highway" v="primary" /><tag k="lanes" v="6" /><tag k="maxspeed" v="25 mph" /><tag k="name" v="Rainier Avenue South" /><tag k="oneway" v="no" /></way><way id="29" timestamp="2017-01-01T00:00:00Z" uid="1" user="osmnx" version="1" changeset="1"><nd ref="53086620" /><nd ref="53090756" /><tag k="highway" v="primary" /><tag k="lanes" v="['4', '5']" /><tag k="maxspeed" v="25 mph" /><tag k="name" v="Rainier Avenue South" /><tag k="oneway" v="no" /></way><way id="3" timestamp="2017-01-01T00:00:00Z" uid="1" user="osmnx" version="1" changeset="1"><nd ref="53134853" /><nd ref="9190642613" /><tag k="highway" v="residential" /><tag k="lanes" v="nan" /><tag k="maxspeed" v="nan" /><tag k="name" v="South Walker Street" /><tag k="oneway" v="no" /></way><way id="30" timestamp="2017-01-01T00:00:00Z" uid="1" user="osmnx" version="1" changeset="1"><nd ref="9190642591" /><nd ref="9190642592" /><tag k="highway" v="residential" /><tag k="lanes" v="1" /><tag k="maxspeed" v="20 mph" /><tag k="name" v="nan" /><tag k="oneway" v="yes" /></way><way id="31" timestamp="2017-01-01T00:00:00Z" uid="1" user="osmnx" version="1" changeset="1"><nd ref="9190642592" /><nd ref="9190642593" /><tag k="highway" v="residential" /><tag k="lanes" v="1" /><tag k="maxspeed" v="20 mph" /><tag k="name" v="nan" /><tag k="oneway" v="yes" /></way><way id="32" timestamp="2017-01-01T00:00:00Z" uid="1" user="osmnx" version="1" changeset="1"><nd ref="53128225" /><nd ref="9190634821" /><tag k="highway" v="residential" /><tag k="lanes" v="nan" /><tag k="maxspeed" v="nan" /><tag k="name" v="South Hill Street" /><tag k="oneway" v="no" /></way><way id="33" timestamp="2017-01-01T00:00:00Z" uid="1" user="osmnx" version="1" changeset="1"><nd ref="53138081" /><nd ref="53090748" /><tag k="highway" v="tertiary" /><tag k="lanes" v="nan" /><tag k="maxspeed" v="25 mph" /><tag k="name" v="17th Avenue South" /><tag k="oneway" v="no" /></way><way id="34" timestamp="2017-01-01T00:00:00Z" uid="1" user="osmnx" version="1" changeset="1"><nd ref="53138081" /><nd ref="53148751" /><tag k="highway" v="tertiary" /><tag k="lanes" v="nan" /><tag k="maxspeed" v="25 mph" /><tag k="name" v="17th Avenue South" /><tag k="oneway" v="no" /></way><way id="35" timestamp="2017-01-01T00:00:00Z" uid="1" user="osmnx" version="1" changeset="1"><nd ref="53155366" /><nd ref="9188413630" /><tag k="highway" v="residential" /><tag k="lanes" v="2" /><tag k="maxspeed" v="20 mph" /><tag k="name" v="South Dearborn Street" /><tag k="oneway" v="no" /></way><way id="36" timestamp="2017-01-01T00:00:00Z" uid="1" user="osmnx" version="1" changeset="1"><nd ref="53155366" /><nd ref="9188385523" /><tag k="highway" v="living_street" /><tag k="lanes" v="2" /><tag k="maxspeed" v="20 mph" /><tag k="name" v="Hiawatha Place South" /><tag k="oneway" v="no" /></way><way id="37" timestamp="2017-01-01T00:00:00Z" uid="1" user="osmnx" version="1" changeset="1"><nd ref="246768814" /><nd ref="53239403" /><tag k="highway" v="primary" /><tag k="lanes" v="6" /><tag k="maxspeed" v="25 mph" /><tag k="name" v="Rainier Avenue South" /><tag k="oneway" v="no" /></way><way id="38" timestamp="2017-01-01T00:00:00Z" uid="1" user="osmnx" version="1" changeset="1"><nd ref="246768814" /><nd ref="9188385524" /><tag k="highway" v="residential" /><tag k="lanes" v="2" /><tag k="maxspeed" v="25 mph" /><tag k="name" v="South Charles Street" /><tag k="oneway" v="no" /></way><way id="39" timestamp="2017-01-01T00:00:00Z" uid="1" user="osmnx" version="1" changeset="1"><nd ref="9190642612" /><nd ref="53199573" /><tag k="highway" v="residential" /><tag k="lanes" v="nan" /><tag k="maxspeed" v="20 mph" /><tag k="name" v="21st Avenue South" /><tag k="oneway" v="no" /></way><way id="4" timestamp="2017-01-01T00:00:00Z" uid="1" user="osmnx" version="1" changeset="1"><nd ref="53130376" /><nd ref="1807547989" /><tag k="highway" v="primary" /><tag k="lanes" v="5" /><tag k="maxspeed" v="25 mph" /><tag k="name" v="Rainier Avenue South" /><tag k="oneway" v="no" /></way><way id="40" timestamp="2017-01-01T00:00:00Z" uid="1" user="osmnx" version="1" changeset="1"><nd ref="9190642612" /><nd ref="9190642613" /><tag k="highway" v="residential" /><tag k="lanes" v="1" /><tag k="maxspeed" v="20 mph" /><tag k="name" v="nan" /><tag k="oneway" v="yes" /></way><way id="41" timestamp="2017-01-01T00:00:00Z" uid="1" user="osmnx" version="1" changeset="1"><nd ref="9188434745" /><nd ref="9188436169" /><tag k="highway" v="residential" /><tag k="lanes" v="2" /><tag k="maxspeed" v="20 mph" /><tag k="name" v="18th Avenue South" /><tag k="oneway" v="no" /></way><way id="42" timestamp="2017-01-01T00:00:00Z" uid="1" user="osmnx" version="1" changeset="1"><nd ref="9188434745" /><nd ref="9188434746" /><tag k="highway" v="residential" /><tag k="lanes" v="1" /><tag k="maxspeed" v="20 mph" /><tag k="name" v="nan" /><tag k="oneway" v="yes" /></way><way id="43" timestamp="2017-01-01T00:00:00Z" uid="1" user="osmnx" version="1" changeset="1"><nd ref="9188434746" /><nd ref="9188434747" /><tag k="highway" v="residential" /><tag k="lanes" v="1" /><tag k="maxspeed" v="20 mph" /><tag k="name" v="nan" /><tag k="oneway" v="yes" /></way><way id="44" timestamp="2017-01-01T00:00:00Z" uid="1" user="osmnx" version="1" changeset="1"><nd ref="53090748" /><nd ref="53090749" /><tag k="highway" v="residential" /><tag k="lanes" v="2" /><tag k="maxspeed" v="25 mph" /><tag k="name" v="South State Street" /><tag k="oneway" v="no" /></way><way id="45" timestamp="2017-01-01T00:00:00Z" uid="1" user="osmnx" version="1" changeset="1"><nd ref="9188436157" /><nd ref="9188436158" /><tag k="highway" v="residential" /><tag k="lanes" v="1" /><tag k="maxspeed" v="20 mph" /><tag k="name" v="nan" /><tag k="oneway" v="yes" /></way><way id="46" timestamp="2017-01-01T00:00:00Z" uid="1" user="osmnx" version="1" changeset="1"><nd ref="9188436157" /><nd ref="9188436169" /><tag k="highway" v="residential" /><tag k="lanes" v="1" /><tag k="maxspeed" v="20 mph" /><tag k="name" v="nan" /><tag k="oneway" v="yes" /></way><way id="47" timestamp="2017-01-01T00:00:00Z" uid="1" user="osmnx" version="1" changeset="1"><nd ref="9188413630" /><nd ref="9188413632" /><tag k="highway" v="residential" /><tag k="lanes" v="1" /><tag k="maxspeed" v="20 mph" /><tag k="name" v="nan" /><tag k="oneway" v="yes" /></way><way id="48" timestamp="2017-01-01T00:00:00Z" uid="1" user="osmnx" version="1" changeset="1"><nd ref="9188436158" /><nd ref="281497076" /><tag k="highway" v="residential" /><tag k="lanes" v="2" /><tag k="maxspeed" v="20 mph" /><tag k="name" v="18th Avenue South" /><tag k="oneway" v="no" /></way><way id="49" timestamp="2017-01-01T00:00:00Z" uid="1" user="osmnx" version="1" changeset="1"><nd ref="53090753" /><nd ref="53090750" /><tag k="highway" v="residential" /><tag k="lanes" v="2" /><tag k="maxspeed" v="25 mph" /><tag k="name" v="South State Street" /><tag k="oneway" v="no" /></way><way id="5" timestamp="2017-01-01T00:00:00Z" uid="1" user="osmnx" version="1" changeset="1"><nd ref="53130376" /><nd ref="1807547986" /><tag k="highway" v="primary" /><tag k="lanes" v="5" /><tag k="maxspeed" v="25 mph" /><tag k="name" v="Rainier Avenue South" /><tag k="oneway" v="no" /></way><way id="50" timestamp="2017-01-01T00:00:00Z" uid="1" user="osmnx" version="1" changeset="1"><nd ref="53090753" /><nd ref="9190593391" /><tag k="highway" v="residential" /><tag k="lanes" v="2" /><tag k="maxspeed" v="25 mph" /><tag k="name" v="South State Street" /><tag k="oneway" v="no" /></way><way id="51" timestamp="2017-01-01T00:00:00Z" uid="1" user="osmnx" version="1" changeset="1"><nd ref="53090750" /><nd ref="53090749" /><tag k="highway" v="residential" /><tag k="lanes" v="2" /><tag k="maxspeed" v="25 mph" /><tag k="name" v="South State Street" /><tag k="oneway" v="no" /></way><way id="52" timestamp="2017-01-01T00:00:00Z" uid="1" user="osmnx" version="1" changeset="1"><nd ref="9190634821" /><nd ref="9190634822" /><tag k="highway" v="residential" /><tag k="lanes" v="1" /><tag k="maxspeed" v="20 mph" /><tag k="name" v="nan" /><tag k="oneway" v="yes" /></way><way id="53" timestamp="2017-01-01T00:00:00Z" uid="1" user="osmnx" version="1" changeset="1"><nd ref="53168084" /><nd ref="53129320" /><tag k="highway" v="residential" /><tag k="lanes" v="2" /><tag k="maxspeed" v="20 mph" /><tag k="name" v="18th Avenue South" /><tag k="oneway" v="no" /></way><way id="54" timestamp="2017-01-01T00:00:00Z" uid="1" user="osmnx" version="1" changeset="1"><nd ref="53199573" /><nd ref="9190705893" /><tag k="highway" v="residential" /><tag k="lanes" v="nan" /><tag k="maxspeed" v="20 mph" /><tag k="name" v="21st Avenue South" /><tag k="oneway" v="no" /></way><way id="55" timestamp="2017-01-01T00:00:00Z" uid="1" user="osmnx" version="1" changeset="1"><nd ref="9190705893" /><nd ref="9190705894" /><tag k="highway" v="residential" /><tag k="lanes" v="1" /><tag k="maxspeed" v="20 mph" /><tag k="name" v="nan" /><tag k="oneway" v="yes" /></way><way id="56" timestamp="2017-01-01T00:00:00Z" uid="1" user="osmnx" version="1" changeset="1"><nd ref="53129320" /><nd ref="53089016" /><tag k="highway" v="residential" /><tag k="lanes" v="2" /><tag k="maxspeed" v="20 mph" /><tag k="name" v="18th Avenue South" /><tag k="oneway" v="no" /></way><way id="57" timestamp="2017-01-01T00:00:00Z" uid="1" user="osmnx" version="1" changeset="1"><nd ref="9190593391" /><nd ref="9190593392" /><tag k="highway" v="residential" /><tag k="lanes" v="1" /><tag k="maxspeed" v="20 mph" /><tag k="name" v="nan" /><tag k="oneway" v="yes" /></way><way id="58" timestamp="2017-01-01T00:00:00Z" uid="1" user="osmnx" version="1" changeset="1"><nd ref="9188385523" /><nd ref="9188385524" /><tag k="highway" v="living_street" /><tag k="lanes" v="1" /><tag k="maxspeed" v="20 mph" /><tag k="name" v="nan" /><tag k="oneway" v="yes" /></way><way id="59" timestamp="2017-01-01T00:00:00Z" uid="1" user="osmnx" version="1" changeset="1"><nd ref="281497076" /><nd ref="53089016" /><tag k="highway" v="residential" /><tag k="lanes" v="2" /><tag k="maxspeed" v="20 mph" /><tag k="name" v="18th Avenue South" /><tag k="oneway" v="no" /></way><way id="6" timestamp="2017-01-01T00:00:00Z" uid="1" user="osmnx" version="1" changeset="1"><nd ref="53130377" /><nd ref="1807547989" /><tag k="highway" v="residential" /><tag k="lanes" v="nan" /><tag k="maxspeed" v="nan" /><tag k="name" v="22nd Avenue South" /><tag k="oneway" v="no" /></way><way id="7" timestamp="2017-01-01T00:00:00Z" uid="1" user="osmnx" version="1" changeset="1"><nd ref="53130377" /><nd ref="53130378" /><tag k="highway" v="residential" /><tag k="lanes" v="nan" /><tag k="maxspeed" v="nan" /><tag k="name" v="22nd Avenue South" /><tag k="oneway" v="no" /></way><way id="8" timestamp="2017-01-01T00:00:00Z" uid="1" user="osmnx" version="1" changeset="1"><nd ref="53130378" /><nd ref="9190642593" /><tag k="highway" v="residential" /><tag k="lanes" v="nan" /><tag k="maxspeed" v="nan" /><tag k="name" v="22nd Avenue South" /><tag k="oneway" v="no" /></way><way id="9" timestamp="2017-01-01T00:00:00Z" uid="1" user="osmnx" version="1" changeset="1"><nd ref="53029515" /><nd ref="30888075" /><tag k="highway" v="primary" /><tag k="lanes" v="5" /><tag k="maxspeed" v="25 mph" /><tag k="name" v="Rainier Avenue South" /><tag k="oneway" v="no" /></way></osm>